TIANMU-1 08             
1 57400U 23101B   26066.00237819  .00000346  00000+0  14775-4 0  9993
2 57400  97.2717 118.7901 0006380 134.2174 225.9592 15.29204229146020
STARLINK-32253          
1 60733U 24152P   26068.83190749  .00016742  00000+0  57572-3 0  9994
2 60733  53.1576 267.6861 0000667 105.9856 254.1218 15.30221532 86828
